{
  "norad_id": 65698,
  "name": "STARLINK-35090",
  "history": [
    {
      "epoch": "2026-03-28T19:55:39.857088Z",
      "apogee_km": 475.6523003925795,
      "perigee_km": 474.7882291086398,
      "latitude_deg": 3.0254902818943505e-05,
      "longitude_deg": 131.6310123222442,
      "height_km": 476.0804554061439,
      "semi_major_axis_km": 6853.35726475061,
      "eccentricity": 6.304e-05,
      "inclination_deg": 53.1571,
      "raan_deg": 256.7922,
      "arg_perigee_deg": 84.898,
      "mean_anomaly_deg": 275.2093,
      "mean_motion_rev_day": 15.3019826
    }
  ]
}